[{"OBJECT_NAME":"STARLINK-31313","OBJECT_ID":"2024-041Q","EPOCH":"2026-03-09T00:57:40.391712","MEAN_MOTION":15.27572063,"ECCENTRICITY":0.00018741,"INCLINATION":43.0024,"RA_OF_ASC_NODE":314.2433,"ARG_OF_PERICENTER":256.6446,"MEAN_ANOMALY":103.4196,"EPHEMERIS_TYPE":0,"CLASSIFICATION_TYPE":"U","NORAD_CAT_ID":59088,"ELEMENT_SET_NO":999,"REV_AT_EPOCH":11417,"BSTAR":-0.0001235842,"MEAN_MOTION_DOT":-3.661e-5,"MEAN_MOTION_DDOT":0},{"OBJECT_NAME":"KUIPER-00252","OBJECT_ID":"2025-301AA","EPOCH":"2026-03-09T22:00:01.999584","MEAN_MOTION":15.32961042,"ECCENTRICITY":0.00108625,"INCLINATION":51.8682,"RA_OF_ASC_NODE":64.6463,"ARG_OF_PERICENTER":55.9089,"MEAN_ANOMALY":330.8749,"EPHEMERIS_TYPE":0,"CLASSIFICATION_TYPE":"U","NORAD_CAT_ID":67157,"ELEMENT_SET_NO":999,"REV_AT_EPOCH":542,"BSTAR":-0.017504489,"MEAN_MOTION_DOT":-0.00529484,"MEAN_MOTION_DDOT":0}]
